NORAD_CAT_ID,OBJECT_NAME,OBJECT_TYPE,EPOCH,MEAN_MOTION,ECCENTRICITY,INCLINATION,RA_OF_ASC_NODE,ARG_OF_PERICENTER,MEAN_ANOMALY,BSTAR,MEAN_MOTION_DOT,MEAN_MOTION_DDOT,TLE_LINE0,TLE_LINE1,TLE_LINE2,SEMIMAJOR_AXIS,PERIOD,APOGEE,PERIGEE,DECAYED
51715.0,STARLINK-3533,PAYLOAD,2022-10-14 23:59:14,15.0885107,0.0001694,53.2179,143.2988,52.0086,308.1059,0.00017831,2.552e-05,0.0,0 STARLINK-3533,1 51715U 22016B   22287.99947595  .00002552  00000-0  17831-3 0  9995,2 51715  53.2179 143.2988 0001694  52.0086 308.1059 15.08851070 37106,6917.847,95.437,540.883,538.54,0.0
51715.0,STARLINK-3533,PAYLOAD,2022-10-15 20:39:14,15.08857872,0.0001675999999999,53.2172,139.4339,51.3886,308.7256,6.801100000000001e-05,7.95e-06,0.0,0 STARLINK-3533,1 51715U 22016B   22288.86058445  .00000795  00000-0  68011-4 0  9993,2 51715  53.2172 139.4339 0001676  51.3886 308.7256 15.08857872 37231,6917.826,95.436,540.85,538.531,0.0
51715.0,STARLINK-3533,PAYLOAD,2022-10-16 01:25:24,15.08847378,0.0001592,53.2167,138.5393,54.6853,305.4287,4.0005e-05,3.49e-06,0.0,0 STARLINK-3533,1 51715U 22016B   22289.05931006  .00000349  00000-0  40005-4 0  9996,2 51715  53.2167 138.5393 0001592  54.6853 305.4287 15.08847378 37263,6917.858,95.437,540.8240000000002,538.622,0.0
51715.0,STARLINK-3533,PAYLOAD,2022-10-16 20:30:02,15.08826656,0.0001974,53.2157,134.9719,61.9921,298.1271,0.0003171,4.760000000000001e-05,0.0,0 STARLINK-3533,1 51715U 22016B   22289.85419749  .00004760  00000-0  31710-3 0  9992,2 51715  53.2157 134.9719 0001974  61.9921 298.1271 15.08826656 37385,6917.920999999999,95.438,541.1519999999998,538.4209999999998,0.0
51715.0,STARLINK-3533,PAYLOAD,2022-10-17 13:59:16,15.08848656,0.0001652,53.2161,131.7015,50.0317,310.082,-0.00011798,-2.166e-05,0.0,0 STARLINK-3533,1 51715U 22016B   22290.58283318 -.00002166  00000-0 -11798-3 0  9999,2 51715  53.2161 131.7015 0001652  50.0317 310.0820 15.08848656 37495,6917.854,95.437,540.862,538.576,0.0
51715.0,STARLINK-3533,PAYLOAD,2022-10-17 18:45:25,15.08846775,0.0001610999999999,53.2163,130.8094,49.7971,310.3162,-2.0723e-05,-6.18e-06,0.0,0 STARLINK-3533,1 51715U 22016B   22290.78154984 -.00000618  00000-0 -20723-4 0  9996,2 51715  53.2163 130.8094 0001611  49.7971 310.3162 15.08846775 37526,6917.86,95.437,540.839,538.61,0.0
51715.0,STARLINK-3533,PAYLOAD,2022-10-18 05:53:07,15.0885269,0.0001617,53.216,128.7276,48.9212,311.192,3.9281e-05,3.37e-06,0.0,0 STARLINK-3533,1 51715U 22016B   22291.24522110  .00000337  00000-0  39281-4 0  9993,2 51715  53.2160 128.7276 0001617  48.9212 311.1920 15.08852690 37597,6917.842,95.437,540.825,538.5880000000002,0.0
51715.0,STARLINK-3533,PAYLOAD,2022-10-19 00:57:45,15.08840593,0.0001712,53.2162,125.1594,49.3638,310.7503,-1.3344e-05,-5e-06,0.0,0 STARLINK-3533,1 51715U 22016B   22292.04010964 -.00000500  00000-0 -13344-4 0  9997,2 51715  53.2162 125.1594 0001712  49.3638 310.7503 15.08840593 37711,6917.879,95.438,540.928,538.559,0.0
51715.0,STARLINK-3533,PAYLOAD,2022-10-19 12:05:26,15.08844023,0.0001629,53.2165,123.0772,52.1295,307.9844,8.8596e-05,1.122e-05,0.0,0 STARLINK-3533,1 51715U 22016B   22292.50378379  .00001122  00000-0  88596-4 0  9995,2 51715  53.2165 123.0772 0001629  52.1295 307.9844 15.08844023 37782,6917.868,95.437,540.86,538.606,0.0
51715.0,STARLINK-3533,PAYLOAD,2022-10-19 15:16:12,15.08849436,0.0001610999999999,53.2166,122.4825,52.1794,307.9343,4.3977e-05,4.12e-06,0.0,0 STARLINK-3533,1 51715U 22016B   22292.63626143  .00000412  00000-0  43977-4 0  9999,2 51715  53.2166 122.4825 0001611  52.1794 307.9343 15.08849436 37800,6917.852,95.437,540.831,538.602,0.0
51715.0,STARLINK-3533,PAYLOAD,2022-10-20 00:48:32,15.08842574,0.0001223,53.2177,120.6968,57.2692,302.8418,-1.6645e-05,-5.53e-06,0.0,0 STARLINK-3533,1 51715U 22016B   22293.03370518 -.00000553  00000-0 -16645-4 0  9996,2 51715  53.2177 120.6968 0001223  57.2692 302.8418 15.08842574 37861,6917.873000000001,95.437,540.5840000000002,538.891,0.0
51715.0,STARLINK-3533,PAYLOAD,2022-10-20 13:31:37,15.0883171,0.0001571,53.2171,118.322,39.4584,320.6522,-1.1664e-05,-4.74e-06,0.0,0 STARLINK-3533,1 51715U 22016B   22293.56363335 -.00000474  00000-0 -11664-4 0  9991,2 51715  53.2171 118.3220 0001571  39.4584 320.6522 15.08831710 37941,6917.906,95.438,540.8580000000002,538.684,0.0
51715.0,STARLINK-3533,PAYLOAD,2022-10-21 00:39:19,15.08844096,0.0002575,53.2151,116.2406,44.363,315.7568,-6.0982e-06,-3.86e-06,0.0,0 STARLINK-3533,1 51715U 22016B   22294.02730902 -.00000386  00000-0 -60982-5 0  9991,2 51715  53.2151 116.2406 0002575  44.3630 315.7568 15.08844096 38019,6917.868,95.437,541.514,537.952,0.0
51715.0,STARLINK-3533,PAYLOAD,2022-10-21 11:47:00,15.08843949,0.0001641999999999,53.2164,114.1555,54.6297,305.4848,5.1001e-05,5.24e-06,0.0,0 STARLINK-3533,1 51715U 22016B   22294.49098336  .00000524  00000-0  51001-4 0  9993,2 51715  53.2164 114.1555 0001642  54.6297 305.4848 15.08843949 38082,6917.868,95.437,540.869,538.597,0.0
51715.0,STARLINK-3533,PAYLOAD,2022-10-21 18:08:32,15.08856587,0.0001827,53.2161,112.9663,54.3604,305.7558,-3.6143e-05,-8.64e-06,0.0,0 STARLINK-3533,1 51715U 22016B   22294.75593725 -.00000864  00000-0 -36143-4 0  9993,2 51715  53.2161 112.9663 0001827  54.3604 305.7558 15.08856587 38127,6917.83,95.437,540.9590000000002,538.431,0.0
51715.0,STARLINK-3533,PAYLOAD,2022-10-22 05:16:14,15.08848726,0.0001895,53.2163,110.885,56.4874,303.6299,0.00015171,2.128e-05,0.0,0 STARLINK-3533,1 51715U 22016B   22295.21961543  .00002128  00000-0  15171-3 0  9992,2 51715  53.2163 110.8850 0001895  56.4874 303.6299 15.08848726 38193,6917.854,95.437,541.03,538.408,0.0
51715.0,STARLINK-3533,PAYLOAD,2022-10-22 19:34:43,15.08842994,0.0001766,53.2169,108.2084,56.5623,303.5537,3.0848e-05,2.03e-06,0.0,0 STARLINK-3533,1 51715U 22016B   22295.81578166  .00000203  00000-0  30848-4 0  9994,2 51715  53.2169 108.2084 0001766  56.5623 303.5537 15.08842994 38284,6917.871,95.437,540.9580000000002,538.515,0.0
51715.0,STARLINK-3533,PAYLOAD,2022-10-23 11:28:34,15.08850882,0.0001773,53.217,105.2351,55.5464,304.5695,9.3236e-05,1.196e-05,0.0,0 STARLINK-3533,1 51715U 22016B   22296.47817236  .00001196  00000-0  93236-4 0  9993,2 51715  53.2170 105.2351 0001773  55.5464 304.5695 15.08850882 38382,6917.847,95.437,540.939,538.486,0.0
51715.0,STARLINK-3533,PAYLOAD,2022-10-23 17:50:06,15.08855565,0.0001855999999999,53.2171,104.0458,55.5706,304.5462,8.2221e-05,1.021e-05,0.0,0 STARLINK-3533,1 51715U 22016B   22296.74312867  .00001021  00000-0  82221-4 0  9992,2 51715  53.2171 104.0458 0001856  55.5706 304.5462 15.08855565 38429,6917.833000000001,95.437,540.982,538.414,0.0
51715.0,STARLINK-3533,PAYLOAD,2022-10-23 21:00:53,15.08846805,0.000196,53.2171,103.4528,54.4625,305.655,3.2877e-05,2.35e-06,0.0,0 STARLINK-3533,1 51715U 22016B   22296.87561534  .00000235  00000-0  32877-4 0  9991,2 51715  53.2171 103.4528 0001960  54.4625 305.6550 15.08846805 38443,6917.86,95.437,541.08,538.369,0.0
51715.0,STARLINK-3533,PAYLOAD,2022-10-24 11:19:21,15.08841997,0.0002041,53.2172,100.7747,56.3716,303.747,-4.5245e-05,-1.008e-05,0.0,0 STARLINK-3533,1 51715U 22016B   22297.47177895 -.00001008  00000-0 -45245-4 0  9995,2 51715  53.2172 100.7747 0002041  56.3716 303.7470 15.08841997 38537,6917.874,95.437,541.151,538.327,0.0
51715.0,STARLINK-3533,PAYLOAD,2022-10-24 12:54:45,15.08837072,0.0001732,53.217,100.4766,63.5886,296.5283,-4.2784e-05,-9.69e-06,0.0,0 STARLINK-3533,1 51715U 22016B   22297.53802149 -.00000969  00000-0 -42784-4 0  9999,2 51715  53.2170 100.4766 0001732  63.5886 296.5283 15.08837072 38548,6917.889,95.438,540.953,538.556,0.0
51715.0,STARLINK-3533,PAYLOAD,2022-10-24 16:05:31,15.08830017,0.0001773,53.2172,99.8824,58.6034,301.5131,-1.9993e-05,-6.06e-06,0.0,0 STARLINK-3533,1 51715U 22016B   22297.67050643 -.00000606  00000-0 -19993-4 0  9992,2 51715  53.2172  99.8824 0001773  58.6034 301.5131 15.08830017 38564,6917.911,95.438,541.002,538.549,0.0
51715.0,STARLINK-3533,PAYLOAD,2022-10-25 12:45:32,15.08842439,0.0002008,53.2174,96.0161,70.7803,289.3406,-0.00011371,-2.098e-05,0.0,0 STARLINK-3533,1 51715U 22016B   22298.53162496 -.00002098  00000-0 -11371-3 0  9996,2 51715  53.2174  96.0161 0002008  70.7803 289.3406 15.08842439 38693,6917.873000000001,95.437,541.127,538.349,0.0
51715.0,STARLINK-3533,PAYLOAD,2022-10-25 17:31:41,15.08838868,0.0002066999999999,53.2172,95.1244,66.5183,293.6026,-2.3852e-05,-6.68e-06,0.0,0 STARLINK-3533,1 51715U 22016B   22298.73034482 -.00000668  00000-0 -23852-4 0  9990,2 51715  53.2172  95.1244 0002067  66.5183 293.6026 15.08838868 38723,6917.884,95.438,541.179,538.319,0.0
51715.0,STARLINK-3533,PAYLOAD,2022-10-26 12:36:19,15.08835584,0.0001896999999999,53.2174,91.5564,54.394,305.7229,0.00017578,2.51e-05,0.0,0 STARLINK-3533,1 51715U 22016B   22299.52522401  .00002510  00000-0  17578-3 0  9994,2 51715  53.2174  91.5564 0001897  54.3940 305.7229 15.08835584 38841,6917.894,95.438,541.071,538.447,0.0
51715.0,STARLINK-3533,PAYLOAD,2022-10-26 18:57:52,15.08830234,0.0001815,53.2174,90.3672,52.8866,307.2292,0.00013061,1.791e-05,0.0,0 STARLINK-3533,1 51715U 22016B   22299.79019072  .00001791  00000-0  13061-3 0  9991,2 51715  53.2174  90.3672 0001815  52.8866 307.2292 15.08830234 38886,6917.91,95.438,541.031,538.52,0.0
51715.0,STARLINK-3533,PAYLOAD,2022-10-27 18:48:39,15.08843567,0.0001881,53.2174,85.9069,53.5432,306.5733,0.0001452,2.024e-05,0.0,0 STARLINK-3533,1 51715U 22016B   22300.78378732  .00002024  00000-0  14520-3 0  9995,2 51715  53.2174  85.9069 0001881  53.5432 306.5733 15.08843567 39039,6917.869000000002,95.437,541.036,538.433,0.0
51715.0,STARLINK-3533,PAYLOAD,2022-10-28 02:45:34,15.08851742,0.0001878,53.2176,84.4204,53.84,306.2766,0.00017282,2.464e-05,0.0,0 STARLINK-3533,1 51715U 22016B   22301.11498164  .00002464  00000-0  17282-3 0  9991,2 51715  53.2176  84.4204 0001878  53.8400 306.2766 15.08851742 39082,6917.844,95.437,541.009,538.41,0.0
